[{"OBJECT_NAME":"SYMPHONIE 2","OBJECT_ID":"1975-077A","EPOCH":"2026-03-14T18:03:01.723392","MEAN_MOTION":0.99972691,"ECCENTRICITY":0.00070035,"INCLINATION":4.2818,"RA_OF_ASC_NODE":275.8028,"ARG_OF_PERICENTER":45.5044,"MEAN_ANOMALY":328.6568,"EPHEMERIS_TYPE":0,"CLASSIFICATION_TYPE":"U","NORAD_CAT_ID":8132,"ELEMENT_SET_NO":999,"REV_AT_EPOCH":14151,"BSTAR":0,"MEAN_MOTION_DOT":1.21e-6,"MEAN_MOTION_DDOT":0},{"OBJECT_NAME":"MOLNIYA 2-14","OBJECT_ID":"1975-081A","EPOCH":"2026-03-14T10:49:02.424000","MEAN_MOTION":2.02108173,"ECCENTRICITY":0.68436324,"INCLINATION":64.605,"RA_OF_ASC_NODE":43.9077,"ARG_OF_PERICENTER":284.053,"MEAN_ANOMALY":13.6062,"EPHEMERIS_TYPE":0,"CLASSIFICATION_TYPE":"U","NORAD_CAT_ID":8195,"ELEMENT_SET_NO":999,"REV_AT_EPOCH":37049,"BSTAR":0,"MEAN_MOTION_DOT":-6.38e-6,"MEAN_MOTION_DDOT":0},{"OBJECT_NAME":"INTELSAT 4A-F1","OBJECT_ID":"1975-091A","EPOCH":"2026-03-14T19:23:48.601824","MEAN_MOTION":0.99918206,"ECCENTRICITY":0.00042523,"INCLINATION":8.0697,"RA_OF_ASC_NODE":304.9414,"ARG_OF_PERICENTER":280.669,"MEAN_ANOMALY":326.3247,"EPHEMERIS_TYPE":0,"CLASSIFICATION_TYPE":"U","NORAD_CAT_ID":8330,"ELEMENT_SET_NO":999,"REV_AT_EPOCH":12052,"BSTAR":0,"MEAN_MOTION_DOT":-1.47e-6,"MEAN_MOTION_DDOT":0},{"OBJECT_NAME":"ATLAS CENTAUR R/B","OBJECT_ID":"1975-091B","EPOCH":"2026-03-14T13:38:34.976832","MEAN_MOTION":2.22313009,"ECCENTRICITY":0.722854,"INCLINATION":21.379,"RA_OF_ASC_NODE":197.8995,"ARG_OF_PERICENTER":104.9934,"MEAN_ANOMALY":338.8474,"EPHEMERIS_TYPE":0,"CLASSIFICATION_TYPE":"U","NORAD_CAT_ID":8331,"ELEMENT_SET_NO":999,"REV_AT_EPOCH":40669,"BSTAR":-8.813336e-6,"MEAN_MOTION_DOT":-4.0e-8,"MEAN_MOTION_DDOT":0},{"OBJECT_NAME":"COSMOS 775","OBJECT_ID":"1975-097A","EPOCH":"2026-03-14T19:02:18.538368","MEAN_MOTION":1.00201598,"ECCENTRICITY":0.0010039,"INCLINATION":2.6027,"RA_OF_ASC_NODE":262.9735,"ARG_OF_PERICENTER":176.0374,"MEAN_ANOMALY":73.6358,"EPHEMERIS_TYPE":0,"CLASSIFICATION_TYPE":"U","NORAD_CAT_ID":8357,"ELEMENT_SET_NO":999,"REV_AT_EPOCH":13081,"BSTAR":0,"MEAN_MOTION_DOT":9.4e-7,"MEAN_MOTION_DDOT":0},{"OBJECT_NAME":"GOES 1 (SMS-C)","OBJECT_ID":"1975-100A","EPOCH":"2026-03-14T16:29:10.721760","MEAN_MOTION":1.00239625,"ECCENTRICITY":0.00052516,"INCLINATION":4.8482,"RA_OF_ASC_NODE":278.6286,"ARG_OF_PERICENTER":1.351,"MEAN_ANOMALY":17.7194,"EPHEMERIS_TYPE":0,"CLASSIFICATION_TYPE":"U","NORAD_CAT_ID":8366,"ELEMENT_SET_NO":999,"REV_AT_EPOCH":18412,"BSTAR":0,"MEAN_MOTION_DOT":1.6e-7,"MEAN_MOTION_DDOT":0},{"OBJECT_NAME":"SATCOM 1","OBJECT_ID":"1975-117A","EPOCH":"2026-03-14T20:36:28.479744","MEAN_MOTION":0.99603842,"ECCENTRICITY":0.00138064,"INCLINATION":8.1912,"RA_OF_ASC_NODE":305.2449,"ARG_OF_PERICENTER":284.0269,"MEAN_ANOMALY":277.5431,"EPHEMERIS_TYPE":0,"CLASSIFICATION_TYPE":"U","NORAD_CAT_ID":8476,"ELEMENT_SET_NO":999,"REV_AT_EPOCH":4542,"BSTAR":0,"MEAN_MOTION_DOT":4.2e-7,"MEAN_MOTION_DDOT":0},{"OBJECT_NAME":"OPS 3165 (DSP 5)","OBJECT_ID":"1975-118A","EPOCH":"2026-03-14T22:15:26.489952","MEAN_MOTION":1.00465752,"ECCENTRICITY":0.00346129,"INCLINATION":2.5341,"RA_OF_ASC_NODE":260.3699,"ARG_OF_PERICENTER":25.8582,"MEAN_ANOMALY":232.1805,"EPHEMERIS_TYPE":0,"CLASSIFICATION_TYPE":"U","NORAD_CAT_ID":8482,"ELEMENT_SET_NO":999,"REV_AT_EPOCH":2550,"BSTAR":0,"MEAN_MOTION_DOT":1.04e-6,"MEAN_MOTION_DDOT":0},{"OBJECT_NAME":"RADUGA 1","OBJECT_ID":"1975-123A","EPOCH":"2026-03-14T20:51:42.019776","MEAN_MOTION":1.00247618,"ECCENTRICITY":0.00042772,"INCLINATION":3.0456,"RA_OF_ASC_NODE":268.0565,"ARG_OF_PERICENTER":300.967,"MEAN_ANOMALY":354.6824,"EPHEMERIS_TYPE":0,"CLASSIFICATION_TYPE":"U","NORAD_CAT_ID":8513,"ELEMENT_SET_NO":999,"REV_AT_EPOCH":19386,"BSTAR":0,"MEAN_MOTION_DOT":-1.18e-6,"MEAN_MOTION_DDOT":0},{"OBJECT_NAME":"TITAN 3C TRANSTAGE R/B","OBJECT_ID":"1975-118C","EPOCH":"2026-03-14T01:53:55.646592","MEAN_MOTION":1.00555152,"ECCENTRICITY":0.00109965,"INCLINATION":2.5136,"RA_OF_ASC_NODE":260.6951,"ARG_OF_PERICENTER":212.7339,"MEAN_ANOMALY":146.7171,"EPHEMERIS_TYPE":0,"CLASSIFICATION_TYPE":"U","NORAD_CAT_ID":8516,"ELEMENT_SET_NO":999,"REV_AT_EPOCH":2482,"BSTAR":0,"MEAN_MOTION_DOT":-1.0e-7,"MEAN_MOTION_DDOT":0},{"OBJECT_NAME":"CTS","OBJECT_ID":"1976-004A","EPOCH":"2026-03-14T21:43:44.530464","MEAN_MOTION":1.00201251,"ECCENTRICITY":0.0011197,"INCLINATION":4.1729,"RA_OF_ASC_NODE":273.3821,"ARG_OF_PERICENTER":289.7692,"MEAN_ANOMALY":196.0136,"EPHEMERIS_TYPE":0,"CLASSIFICATION_TYPE":"U","NORAD_CAT_ID":8585,"ELEMENT_SET_NO":999,"REV_AT_EPOCH":12135,"BSTAR":0,"MEAN_MOTION_DOT":-1.2e-6,"MEAN_MOTION_DDOT":0},{"OBJECT_NAME":"MOLNIYA 1-32","OBJECT_ID":"1976-006A","EPOCH":"2026-03-11T20:30:22.954176","MEAN_MOTION":2.00004339,"ECCENTRICITY":0.67192815,"INCLINATION":63.6427,"RA_OF_ASC_NODE":145.0173,"ARG_OF_PERICENTER":277.0225,"MEAN_ANOMALY":16.6711,"EPHEMERIS_TYPE":0,"CLASSIFICATION_TYPE":"U","NORAD_CAT_ID":8601,"ELEMENT_SET_NO":999,"REV_AT_EPOCH":7993,"BSTAR":0,"MEAN_MOTION_DOT":1.323e-5,"MEAN_MOTION_DDOT":0},{"OBJECT_NAME":"INTELSAT 4A-F2","OBJECT_ID":"1976-010A","EPOCH":"2026-03-14T20:33:21.278592","MEAN_MOTION":0.99691701,"ECCENTRICITY":0.00066502,"INCLINATION":8.1006,"RA_OF_ASC_NODE":304.5386,"ARG_OF_PERICENTER":316.4884,"MEAN_ANOMALY":233.7005,"EPHEMERIS_TYPE":0,"CLASSIFICATION_TYPE":"U","NORAD_CAT_ID":8620,"ELEMENT_SET_NO":999,"REV_AT_EPOCH":61967,"BSTAR":0,"MEAN_MOTION_DOT":-1.5e-7,"MEAN_MOTION_DDOT":0},{"OBJECT_NAME":"ATLAS CENTAUR R/B","OBJECT_ID":"1976-010B","EPOCH":"2026-03-14T22:10:49.431936","MEAN_MOTION":2.2073318,"ECCENTRICITY":0.71763174,"INCLINATION":21.3361,"RA_OF_ASC_NODE":135.9226,"ARG_OF_PERICENTER":194.6815,"MEAN_ANOMALY":139.5046,"EPHEMERIS_TYPE":0,"CLASSIFICATION_TYPE":"U","NORAD_CAT_ID":8621,"ELEMENT_SET_NO":999,"REV_AT_EPOCH":28348,"BSTAR":-0.00057965285,"MEAN_MOTION_DOT":-2.0e-6,"MEAN_MOTION_DDOT":0},{"OBJECT_NAME":"LES-8","OBJECT_ID":"1976-023A","EPOCH":"2026-03-11T21:49:43.256352","MEAN_MOTION":1.00269619,"ECCENTRICITY":0.0031975,"INCLINATION":22.2188,"RA_OF_ASC_NODE":38.2687,"ARG_OF_PERICENTER":157.0284,"MEAN_ANOMALY":198.2122,"EPHEMERIS_TYPE":0,"CLASSIFICATION_TYPE":"U","NORAD_CAT_ID":8746,"ELEMENT_SET_NO":999,"REV_AT_EPOCH":12870,"BSTAR":0,"MEAN_MOTION_DOT":-1.12e-6,"MEAN_MOTION_DDOT":0},{"OBJECT_NAME":"LES-9","OBJECT_ID":"1976-023B","EPOCH":"2026-03-14T09:44:24.676224","MEAN_MOTION":1.0027566,"ECCENTRICITY":0.00237463,"INCLINATION":22.1851,"RA_OF_ASC_NODE":38.2488,"ARG_OF_PERICENTER":181.2202,"MEAN_ANOMALY":355.3436,"EPHEMERIS_TYPE":0,"CLASSIFICATION_TYPE":"U","NORAD_CAT_ID":8747,"ELEMENT_SET_NO":999,"REV_AT_EPOCH":12872,"BSTAR":0,"MEAN_MOTION_DOT":-1.1e-6,"MEAN_MOTION_DDOT":0},{"OBJECT_NAME":"TITAN 3C TRANSTAGE R/B","OBJECT_ID":"1976-023F","EPOCH":"2026-03-14T08:56:06.490176","MEAN_MOTION":0.98324103,"ECCENTRICITY":0.01205201,"INCLINATION":21.672,"RA_OF_ASC_NODE":43.9006,"ARG_OF_PERICENTER":103.6183,"MEAN_ANOMALY":248.728,"EPHEMERIS_TYPE":0,"CLASSIFICATION_TYPE":"U","NORAD_CAT_ID":8751,"ELEMENT_SET_NO":999,"REV_AT_EPOCH":18227,"BSTAR":0,"MEAN_MOTION_DOT":-6.5e-7,"MEAN_MOTION_DDOT":0}]
