SYMPHONIE 2             
1 08132U 75077A   26073.75210328  .00000121  00000+0  00000+0 0  9998
2 08132   4.2818 275.8028 0007003  45.5044 328.6568  0.99972691141515
MOLNIYA 2-14            
1 08195U 75081A   26073.45072250 -.00000638  00000+0  00000+0 0  9993
2 08195  64.6050  43.9077 6843632 284.0530  13.6062  2.02108173370495
INTELSAT 4A-F1          
1 08330U 75091A   26073.80820141 -.00000147  00000+0  00000+0 0  9999
2 08330   8.0697 304.9414 0004252 280.6690 326.3247  0.99918206120526
ATLAS CENTAUR R/B       
1 08331U 75091B   26073.56846038 -.00000004  00000+0 -88133-5 0  9998
2 08331  21.3790 197.8995 7228540 104.9934 338.8474  2.22313009406699
COSMOS 775              
1 08357U 75097A   26073.79327012  .00000094  00000+0  00000+0 0  9991
2 08357   2.6027 262.9735 0010039 176.0374  73.6358  1.00201598130818
GOES 1 (SMS-C)          
1 08366U 75100A   26073.68692965  .00000016  00000+0  00000+0 0  9990
2 08366   4.8482 278.6286 0005251   1.3510  17.7194  1.00239625184126
SATCOM 1                
1 08476U 75117A   26073.85866296  .00000042  00000+0  00000+0 0  9998
2 08476   8.1912 305.2449 0013806 284.0269 277.5431  0.99603842 45429
OPS 3165 (DSP 5)        
1 08482U 75118A   26073.92738993  .00000104  00000+0  00000+0 0  9995
2 08482   2.5341 260.3699 0034612  25.8582 232.1805  1.00465752 25503
RADUGA 1                
1 08513U 75123A   26073.86923634 -.00000118  00000+0  00000+0 0  9993
2 08513   3.0456 268.0565 0004277 300.9670 354.6824  1.00247618193862
TITAN 3C TRANSTAGE R/B  
1 08516U 75118C   26073.07911628 -.00000010  00000+0  00000+0 0  9994
2 08516   2.5136 260.6951 0010996 212.7339 146.7171  1.00555152 24827
CTS                     
1 08585U 76004A   26073.90537651 -.00000120  00000+0  00000+0 0  9999
2 08585   4.1729 273.3821 0011197 289.7692 196.0136  1.00201251121359
MOLNIYA 1-32            
1 08601U 76006A   26070.85443234  .00001323  00000+0  00000+0 0  9999
2 08601  63.6427 145.0173 6719281 277.0225  16.6711  2.00004339 79936
INTELSAT 4A-F2          
1 08620U 76010A   26073.85649628 -.00000015  00000+0  00000+0 0  9991
2 08620   8.1006 304.5386 0006650 316.4884 233.7005  0.99691701619674
ATLAS CENTAUR R/B       
1 08621U 76010B   26073.92418324 -.00000200  00000+0 -57965-3 0  9990
2 08621  21.3361 135.9226 7176317 194.6815 139.5046  2.20733180283488
LES-8                   
1 08746U 76023A   26070.90952843 -.00000112  00000+0  00000+0 0  9991
2 08746  22.2188  38.2687 0031975 157.0284 198.2122  1.00269619128703
LES-9                   
1 08747U 76023B   26073.40584116 -.00000110  00000+0  00000+0 0  9992
2 08747  22.1851  38.2488 0023746 181.2202 355.3436  1.00275660128724
TITAN 3C TRANSTAGE R/B  
1 08751U 76023F   26073.37229734 -.00000065  00000+0  00000+0 0  9994
2 08751  21.6720  43.9006 0120520 103.6183 248.7280  0.98324103182276
